STARLINK-1470           
1 45772U 20038AU  26068.60892913  .00054678  00000+0  19687-2 0  9990
2 45772  53.0480 174.6971 0002444  12.8687 347.2373 15.28074860317065
STARLINK-36139          
1 66966U 25288H   26068.91049090  .00027584  00000+0  10077-2 0  9994
2 66966  42.9977  21.9907 0001055 176.7824 183.3035 15.27594149 15328
