[{"OBJECT_NAME":"STARLINK-1470","OBJECT_ID":"2020-038AU","EPOCH":"2026-03-09T14:36:51.476832","MEAN_MOTION":15.2807486,"ECCENTRICITY":0.0002444,"INCLINATION":53.048,"RA_OF_ASC_NODE":174.6971,"ARG_OF_PERICENTER":12.8687,"MEAN_ANOMALY":347.2373,"EPHEMERIS_TYPE":0,"CLASSIFICATION_TYPE":"U","NORAD_CAT_ID":45772,"ELEMENT_SET_NO":999,"REV_AT_EPOCH":31706,"BSTAR":0.0019687,"MEAN_MOTION_DOT":0.00054678,"MEAN_MOTION_DDOT":0},{"OBJECT_NAME":"STARLINK-36139","OBJECT_ID":"2025-288H","EPOCH":"2026-03-09T21:51:06.413760","MEAN_MOTION":15.27594149,"ECCENTRICITY":0.00010547,"INCLINATION":42.9977,"RA_OF_ASC_NODE":21.9907,"ARG_OF_PERICENTER":176.7824,"MEAN_ANOMALY":183.3035,"EPHEMERIS_TYPE":0,"CLASSIFICATION_TYPE":"U","NORAD_CAT_ID":66966,"ELEMENT_SET_NO":999,"REV_AT_EPOCH":1532,"BSTAR":0.0010077244,"MEAN_MOTION_DOT":0.00027584,"MEAN_MOTION_DDOT":0}]
